AISTECHSAT 2            
1 43768U 18099L   26130.38120977  .00003018  00000+0  16483-3 0  9990
2 43768  97.4325 179.2480 0006342  78.2460 281.9483 15.15059832406557
FOX-1CLIFF (AO-95)      
1 43770U 18099N   26130.44552697  .00007220  00000+0  28417-3 0  9997
2 43770  97.4407 190.8512 0010399 118.8153 241.4130 15.25887512407469
RANGE-A                 
1 43773U 18099R   26130.35359064  .00002713  00000+0  15683-3 0  9996
2 43773  97.3999 174.0435 0012023 115.5984 244.6491 15.13055987406775
SNUSAT-2                
1 43782U 18099AA  26130.38666308  .00004962  00000+0  22481-3 0  9993
2 43782  97.4090 184.3631 0011862  73.2522 287.0014 15.21253502407289
SNUGLITE                
1 43784U 18099AC  26130.39177297  .00006857  00000+0  26663-3 0  9991
2 43784  97.3899 185.0631 0004311  78.5283 281.6439 15.26348676407551
ITASAT                  
1 43786U 18099AE  26130.13845262  .00004286  00000+0  21015-3 0  9999
2 43786  97.4059 182.4183 0014274 122.6036 237.6578 15.18562235407130
EAGLET-I                
1 43790U 18099AJ  26130.08538371  .00003291  00000+0  19162-3 0  9993
2 43790  97.4259 180.7658 0012758 115.1356 245.1200 15.12645067406574
ESEO                    
1 43792U 18099AL  26130.52824772  .00001680  00000+0  12517-3 0  9994
2 43792  97.3995 169.5257 0013326 101.2821 258.9904 15.04124658406142
THEA                    
1 43796U 18099AQ  26130.18043999  .00010654  00000+0  32863-3 0  9991
2 43796  97.4457 199.5392 0008483  68.3658 291.8487 15.33733537406867
ASTROCAST 0.1           
1 43798U 18099AS  26130.45134185  .00020049  00000+0  39708-3 0  9995
2 43798  97.4385 207.8462 0004116  12.0451 348.0896 15.47096051408595
JY1SAT (JO-97)          
1 43803U 18099AX  26130.23712112  .00010060  00000+0  32327-3 0  9992
2 43803  97.4152 192.9721 0006630  58.8486 301.3405 15.32451468407818
SUOMI-100               
1 43804U 18099AY  26130.41897306  .00006766  00000+0  25346-3 0  9993
2 43804  97.4213 190.9741 0011197  61.0154 299.2206 15.27544341407652
CENTAURI-1              
1 43809U 18099BD  26130.12505813  .00003521  00000+0  18640-3 0  9990
2 43809  97.4250 182.6677 0015967 100.3876 259.9158 15.15970364406733
GLOBAL-2                
1 43812U 18099BG  26130.53162300  .00002110  00000+0  13935-3 0  9994
2 43812  97.3585 168.6115 0004266 287.9458  72.1306 15.08448665406237
SEAHAWK-1               
1 43820U 18099BQ  26130.41028373  .00005714  00000+0  25163-3 0  9990
2 43820  97.3988 183.4847 0010002  85.7244 274.5135 15.22178959406782
SAUDISAT 5A             
1 43831U 18102A   26130.50562772  .00003402  00000+0  12848-3 0  9991
2 43831  97.3091 192.8190 0008000 266.0898  93.9427 15.27659590409924
SAUDISAT 5B             
1 43833U 18102C   26130.53107157  .00003297  00000+0  12352-3 0  9990
2 43833  97.3195 195.8454 0008726 268.8148  91.2092 15.27937155410040
ISAT                    
1 43879U 18111D   26130.36443306  .00047464  00000+0  60200-3 0  9999
2 43879  97.5896  62.8717 0008429  88.2570 271.9651 15.59271715405262
UWE-4                   
1 43880U 18111E   26130.51796500  .00020922  00000+0  46209-3 0  9998
2 43880  97.5852  57.2458 0010727  99.4200 260.8260 15.43832078404961
D-STAR ONE (SPARROW)    
1 43881U 18111F   26130.31934928  .00068381  00000+0  68196-3 0  9995
2 43881  97.6121  67.8689 0007539 111.4928 248.7135 15.65412260405434
JILIN-1 09              
1 43943U 19005B   26130.53267087  .00003245  00000+0  15307-3 0  9990
2 43943  97.4713 225.8317 0001865 178.4221 181.7020 15.20177491403428
JILIN-1 10              
1 43946U 19005E   26130.54109270  .00004052  00000+0  16365-3 0  9995
2 43946  97.4752 229.3644 0009342  58.9227 301.2926 15.25308298403578
EGYPTSAT-A (MISRSAT-A)  
1 44047U 19008A   26130.49191273  .00001654  00000+0  26967-3 0  9993
2 44047  98.0052 195.8107 0001387  75.4610 284.6751 14.72265868387693
EMISAT                  
1 44078U 19018A   26130.51023847  .00000257  00000+0  88574-4 0  9993
2 44078  98.4664 189.5117 0017973 335.1787  24.8537 14.43669793374628
JILIN-1 GAOFEN 3A       
1 44312U 19032C   26130.53157949  .00007474  00000+0  24820-3 0  9994
2 44312  44.9747 204.0398 0003119  81.2933 278.8304 15.31825330382069
PROX-1                  
1 44339U 19036A   26130.35676711  .00008553  00000+0  84248-3 0  9999
2 44339  23.9966   6.7671 0006436 315.7941  44.2044 14.89721231367828
NPSAT1                  
1 44340U 19036B   26130.21634495  .00003562  00000+0  49053-3 0  9999
2 44340  23.9979 104.9833 0008222 140.9892 219.1198 14.74226474366884
