OBJECT_NAME,OBJECT_ID,EPOCH,MEAN_MOTION,ECCENTRICITY,INCLINATION,RA_OF_ASC_NODE,ARG_OF_PERICENTER,MEAN_ANOMALY,EPHEMERIS_TYPE,CLASSIFICATION_TYPE,NORAD_CAT_ID,ELEMENT_SET_NO,REV_AT_EPOCH,BSTAR,MEAN_MOTION_DOT,MEAN_MOTION_DDOT
AISTECHSAT 2,2018-099L,2026-05-10T09:08:56.524128,15.15059832,.0006342,97.4325,179.2480,78.2460,281.9483,0,U,43768,999,40655,.16483E-3,.3018E-4,0
FOX-1CLIFF (AO-95),2018-099N,2026-05-10T10:41:33.530208,15.25887512,.0010399,97.4407,190.8512,118.8153,241.4130,0,U,43770,999,40746,.28417E-3,.722E-4,0
RANGE-A,2018-099R,2026-05-10T08:29:10.231296,15.13055987,.0012023,97.3999,174.0435,115.5984,244.6491,0,U,43773,999,40677,.15683E-3,.2713E-4,0
SNUSAT-2,2018-099AA,2026-05-10T09:16:47.690112,15.21253502,.0011862,97.4090,184.3631,73.2522,287.0014,0,U,43782,999,40728,.22481E-3,.4962E-4,0
SNUGLITE,2018-099AC,2026-05-10T09:24:09.184608,15.26348676,.0004311,97.3899,185.0631,78.5283,281.6439,0,U,43784,999,40755,.26663E-3,.6857E-4,0
ITASAT,2018-099AE,2026-05-10T03:19:22.306368,15.18562235,.00142748,97.4059,182.4183,122.6036,237.6578,0,U,43786,999,40713,.21014928E-3,.4286E-4,0
EAGLET-I,2018-099AJ,2026-05-10T02:02:57.152544,15.12645067,.00127582,97.4259,180.7658,115.1356,245.1200,0,U,43790,999,40657,.19161759E-3,.3291E-4,0
ESEO,2018-099AL,2026-05-10T12:40:40.603008,15.04124658,.0013326,97.3995,169.5257,101.2821,258.9904,0,U,43792,999,40614,.12517E-3,.168E-4,0
THEA,2018-099AQ,2026-05-10T04:19:50.015136,15.33733537,.00084833,97.4457,199.5392,68.3658,291.8487,0,U,43796,999,40686,.3286282E-3,.10654E-3,0
ASTROCAST 0.1,2018-099AS,2026-05-10T10:49:55.935840,15.47096051,.0004116,97.4385,207.8462,12.0451,348.0896,0,U,43798,999,40859,.39708E-3,.20049E-3,0
JY1SAT (JO-97),2018-099AX,2026-05-10T05:41:27.264768,15.32451468,.00066302,97.4152,192.9721,58.8486,301.3405,0,U,43803,999,40781,.32326525E-3,.1006E-3,0
SUOMI-100,2018-099AY,2026-05-10T10:03:19.272384,15.27544341,.0011197,97.4213,190.9741,61.0154,299.2206,0,U,43804,999,40765,.25346E-3,.6766E-4,0
CENTAURI-1,2018-099BD,2026-05-10T03:00:05.022432,15.15970364,.00159674,97.4250,182.6677,100.3876,259.9158,0,U,43809,999,40673,.18639606E-3,.3521E-4,0
GLOBAL-2,2018-099BG,2026-05-10T12:45:32.227200,15.08448665,.0004266,97.3585,168.6115,287.9458,72.1306,0,U,43812,999,40623,.13935E-3,.211E-4,0
SEAHAWK-1,2018-099BQ,2026-05-10T09:50:48.514272,15.22178959,.0010002,97.3988,183.4847,85.7244,274.5135,0,U,43820,999,40678,.25163E-3,.5714E-4,0
SAUDISAT 5A,2018-102A,2026-05-10T12:08:06.235008,15.27659590,.0008,97.3091,192.8190,266.0898,93.9427,0,U,43831,999,40992,.12848E-3,.3402E-4,0
SAUDISAT 5B,2018-102C,2026-05-10T12:44:44.583648,15.27937155,.0008726,97.3195,195.8454,268.8148,91.2092,0,U,43833,999,41004,.12352E-3,.3297E-4,0
ISAT,2018-111D,2026-05-10T08:44:47.016384,15.59271715,.0008429,97.5896,62.8717,88.2570,271.9651,0,U,43879,999,40526,.602E-3,.47464E-3,0
UWE-4,2018-111E,2026-05-10T12:25:52.176000,15.43832078,.0010727,97.5852,57.2458,99.4200,260.8260,0,U,43880,999,40496,.46209E-3,.20922E-3,0
D-STAR ONE (SPARROW),2018-111F,2026-05-10T07:39:51.777792,15.65412260,.0007539,97.6121,67.8689,111.4928,248.7135,0,U,43881,999,40543,.68196E-3,.68381E-3,0
JILIN-1 09,2019-005B,2026-05-10T12:47:02.763168,15.20177491,.0001865,97.4713,225.8317,178.4221,181.7020,0,U,43943,999,40342,.15307E-3,.3245E-4,0
JILIN-1 10,2019-005E,2026-05-10T12:59:10.409280,15.25308298,.0009342,97.4752,229.3644,58.9227,301.2926,0,U,43946,999,40357,.16365E-3,.4052E-4,0
EGYPTSAT-A (MISRSAT-A),2019-008A,2026-05-10T11:48:21.259872,14.72265868,.0001387,98.0052,195.8107,75.4610,284.6751,0,U,44047,999,38769,.26967E-3,.1654E-4,0
EMISAT,2019-018A,2026-05-10T12:14:44.603808,14.43669793,.0017973,98.4664,189.5117,335.1787,24.8537,0,U,44078,999,37462,.88574E-4,.257E-5,0
JILIN-1 GAOFEN 3A,2019-032C,2026-05-10T12:45:28.467936,15.31825330,.0003119,44.9747,204.0398,81.2933,278.8304,0,U,44312,999,38206,.2482E-3,.7474E-4,0
PROX-1,2019-036A,2026-05-10T08:33:44.678304,14.89721231,.0006436,23.9966,6.7671,315.7941,44.2044,0,U,44339,999,36782,.84248E-3,.8553E-4,0
NPSAT1,2019-036B,2026-05-10T05:11:32.203680,14.74226474,.00082229,23.9979,104.9833,140.9892,219.1198,0,U,44340,999,36688,.49053319E-3,.3562E-4,0
